[{"OBJECT_NAME":"AISTECHSAT 2","OBJECT_ID":"2018-099L","EPOCH":"2026-03-09T16:20:03.228288","MEAN_MOTION":15.14339272,"ECCENTRICITY":0.00032581,"INCLINATION":97.4431,"RA_OF_ASC_NODE":118.9026,"ARG_OF_PERICENTER":288.6059,"MEAN_ANOMALY":71.4819,"EPHEMERIS_TYPE":0,"CLASSIFICATION_TYPE":"U","NORAD_CAT_ID":43768,"ELEMENT_SET_NO":999,"REV_AT_EPOCH":39721,"BSTAR":0.00042226412,"MEAN_MOTION_DOT":7.677e-5,"MEAN_MOTION_DDOT":0},{"OBJECT_NAME":"STARLINK-6250","OBJECT_ID":"2023-094N","EPOCH":"2026-03-09T22:00:01.999584","MEAN_MOTION":15.13757953,"ECCENTRICITY":7.742e-5,"INCLINATION":43.0004,"RA_OF_ASC_NODE":28.5902,"ARG_OF_PERICENTER":238.6118,"MEAN_ANOMALY":352.2453,"EPHEMERIS_TYPE":0,"CLASSIFICATION_TYPE":"U","NORAD_CAT_ID":57230,"ELEMENT_SET_NO":999,"REV_AT_EPOCH":558,"BSTAR":0.0042340714,"MEAN_MOTION_DOT":0.00078344,"MEAN_MOTION_DDOT":0}]
